[{"OBJECT_NAME":"FLOCK 4Y-33","OBJECT_ID":"2023-001AK","EPOCH":"2024-01-23T03:42:22.070304","MEAN_MOTION":15.23498944,"ECCENTRICITY":0.0009628,"INCLINATION":97.448,"RA_OF_ASC_NODE":85.8004,"ARG_OF_PERICENTER":323.8099,"MEAN_ANOMALY":36.2486,"EPHEMERIS_TYPE":0,"CLASSIFICATION_TYPE":"U","NORAD_CAT_ID":55042,"ELEMENT_SET_NO":999,"REV_AT_EPOCH":5851,"BSTAR":0.00062465,"MEAN_MOTION_DOT":0.0001487,"MEAN_MOTION_DDOT":0},{"OBJECT_NAME":"FLOCK 4Y-11","OBJECT_ID":"2023-001AL","EPOCH":"2024-01-23T03:40:43.670208","MEAN_MOTION":15.22605284,"ECCENTRICITY":0.0009508,"INCLINATION":97.4524,"RA_OF_ASC_NODE":85.742,"ARG_OF_PERICENTER":324.3377,"MEAN_ANOMALY":35.7224,"EPHEMERIS_TYPE":0,"CLASSIFICATION_TYPE":"U","NORAD_CAT_ID":55043,"ELEMENT_SET_NO":999,"REV_AT_EPOCH":5849,"BSTAR":0.00057738,"MEAN_MOTION_DOT":0.00013378,"MEAN_MOTION_DDOT":0},{"OBJECT_NAME":"STERNULA-1","OBJECT_ID":"2023-001AM","EPOCH":"2024-01-23T07:11:37.110048","MEAN_MOTION":15.2400188,"ECCENTRICITY":0.000997,"INCLINATION":97.4526,"RA_OF_ASC_NODE":85.6357,"ARG_OF_PERICENTER":335.9497,"MEAN_ANOMALY":24.1273,"EPHEMERIS_TYPE":0,"CLASSIFICATION_TYPE":"U","NORAD_CAT_ID":55044,"ELEMENT_SET_NO":999,"REV_AT_EPOCH":5849,"BSTAR":0.0010682,"MEAN_MOTION_DOT":0.00025904,"MEAN_MOTION_DDOT":0},{"OBJECT_NAME":"NUSAT-34 (AMELIA EARHART)","OBJECT_ID":"2023-001AN","EPOCH":"2024-01-23T06:54:09.125568","MEAN_MOTION":15.24179482,"ECCENTRICITY":0.0010883,"INCLINATION":97.4167,"RA_OF_ASC_NODE":84.974,"ARG_OF_PERICENTER":316.2989,"MEAN_ANOMALY":43.7385,"EPHEMERIS_TYPE":0,"CLASSIFICATION_TYPE":"U","NORAD_CAT_ID":55045,"ELEMENT_SET_NO":999,"REV_AT_EPOCH":5854,"BSTAR":0.00064635,"MEAN_MOTION_DOT":0.00015712,"MEAN_MOTION_DDOT":0},{"OBJECT_NAME":"LYNK TOWER 3","OBJECT_ID":"2023-001AP","EPOCH":"2024-01-23T02:30:40.489056","MEAN_MOTION":15.16362316,"ECCENTRICITY":0.0011255,"INCLINATION":97.4513,"RA_OF_ASC_NODE":83.4955,"ARG_OF_PERICENTER":336.2147,"MEAN_ANOMALY":23.8565,"EPHEMERIS_TYPE":0,"CLASSIFICATION_TYPE":"U","NORAD_CAT_ID":55046,"ELEMENT_SET_NO":999,"REV_AT_EPOCH":5834,"BSTAR":0.00035003,"MEAN_MOTION_DOT":6.737e-5,"MEAN_MOTION_DDOT":0},{"OBJECT_NAME":"NUSAT-33 (ALBANIA-2)","OBJECT_ID":"2023-001AQ","EPOCH":"2024-01-23T07:08:01.164480","MEAN_MOTION":15.25494579,"ECCENTRICITY":0.0009729,"INCLINATION":97.4035,"RA_OF_ASC_NODE":84.986,"ARG_OF_PERICENTER":302.3334,"MEAN_ANOMALY":57.6962,"EPHEMERIS_TYPE":0,"CLASSIFICATION_TYPE":"U","NORAD_CAT_ID":55047,"ELEMENT_SET_NO":999,"REV_AT_EPOCH":5858,"BSTAR":0.00066364,"MEAN_MOTION_DOT":0.00016778,"MEAN_MOTION_DDOT":0},{"OBJECT_NAME":"NUSAT-35 (WILLIAMINA)","OBJECT_ID":"2023-001AR","EPOCH":"2024-01-23T07:07:40.707552","MEAN_MOTION":15.23803029,"ECCENTRICITY":0.0011105,"INCLINATION":97.3856,"RA_OF_ASC_NODE":84.5098,"ARG_OF_PERICENTER":329.1586,"MEAN_ANOMALY":30.8998,"EPHEMERIS_TYPE":0,"CLASSIFICATION_TYPE":"U","NORAD_CAT_ID":55048,"ELEMENT_SET_NO":999,"REV_AT_EPOCH":5844,"BSTAR":0.00060933,"MEAN_MOTION_DOT":0.00014642,"MEAN_MOTION_DDOT":0},{"OBJECT_NAME":"ICEYE-X21","OBJECT_ID":"2023-001AS","EPOCH":"2024-01-23T11:01:50.024064","MEAN_MOTION":15.22192303,"ECCENTRICITY":0.0011028,"INCLINATION":97.4529,"RA_OF_ASC_NODE":85.4442,"ARG_OF_PERICENTER":327.3093,"MEAN_ANOMALY":32.746,"EPHEMERIS_TYPE":0,"CLASSIFICATION_TYPE":"U","NORAD_CAT_ID":55049,"ELEMENT_SET_NO":999,"REV_AT_EPOCH":5850,"BSTAR":0.00080613,"MEAN_MOTION_DOT":0.000185,"MEAN_MOTION_DDOT":0},{"OBJECT_NAME":"UMBRA-04","OBJECT_ID":"2023-001AT","EPOCH":"2024-01-23T03:37:33.299904","MEAN_MOTION":15.24879993,"ECCENTRICITY":0.0003785,"INCLINATION":97.4513,"RA_OF_ASC_NODE":85.0699,"ARG_OF_PERICENTER":112.6538,"MEAN_ANOMALY":247.51,"EPHEMERIS_TYPE":0,"CLASSIFICATION_TYPE":"U","NORAD_CAT_ID":55050,"ELEMENT_SET_NO":999,"REV_AT_EPOCH":5845,"BSTAR":0.0017712,"MEAN_MOTION_DOT":0.00044196,"MEAN_MOTION_DDOT":0},{"OBJECT_NAME":"ION SCV-008","OBJECT_ID":"2023-001AU","EPOCH":"2024-01-23T04:31:33.460608","MEAN_MOTION":15.10798151,"ECCENTRICITY":0.0011224,"INCLINATION":97.6276,"RA_OF_ASC_NODE":102.3608,"ARG_OF_PERICENTER":173.3992,"MEAN_ANOMALY":186.7387,"EPHEMERIS_TYPE":0,"CLASSIFICATION_TYPE":"U","NORAD_CAT_ID":55051,"ELEMENT_SET_NO":999,"REV_AT_EPOCH":5822,"BSTAR":0.00033951,"MEAN_MOTION_DOT":5.582e-5,"MEAN_MOTION_DDOT":0},{"OBJECT_NAME":"SKYKRAFT-1D","OBJECT_ID":"2023-001AV","EPOCH":"2024-01-23T04:03:35.084448","MEAN_MOTION":15.22992745,"ECCENTRICITY":0.0010378,"INCLINATION":97.4493,"RA_OF_ASC_NODE":85.297,"ARG_OF_PERICENTER":328.7375,"MEAN_ANOMALY":31.3243,"EPHEMERIS_TYPE":0,"CLASSIFICATION_TYPE":"U","NORAD_CAT_ID":55052,"ELEMENT_SET_NO":999,"REV_AT_EPOCH":5847,"BSTAR":0.00079207,"MEAN_MOTION_DOT":0.00018607,"MEAN_MOTION_DDOT":0},{"OBJECT_NAME":"EOSSAT-1","OBJECT_ID":"2023-001AW","EPOCH":"2024-01-23T09:44:48.844896","MEAN_MOTION":15.16871897,"ECCENTRICITY":0.0012318,"INCLINATION":97.4516,"RA_OF_ASC_NODE":84.0133,"ARG_OF_PERICENTER":334.0978,"MEAN_ANOMALY":25.9637,"EPHEMERIS_TYPE":0,"CLASSIFICATION_TYPE":"U","NORAD_CAT_ID":55053,"ELEMENT_SET_NO":999,"REV_AT_EPOCH":5840,"BSTAR":0.00033787,"MEAN_MOTION_DOT":6.598e-5,"MEAN_MOTION_DDOT":0},{"OBJECT_NAME":"SKYKRAFT-1A","OBJECT_ID":"2023-001AX","EPOCH":"2024-01-23T02:51:07.924608","MEAN_MOTION":15.16747878,"ECCENTRICITY":0.0011889,"INCLINATION":97.4494,"RA_OF_ASC_NODE":83.6877,"ARG_OF_PERICENTER":336.1845,"MEAN_ANOMALY":23.8837,"EPHEMERIS_TYPE":0,"CLASSIFICATION_TYPE":"U","NORAD_CAT_ID":55054,"ELEMENT_SET_NO":999,"REV_AT_EPOCH":5836,"BSTAR":0.0002874,"MEAN_MOTION_DOT":5.581e-5,"MEAN_MOTION_DDOT":0},{"OBJECT_NAME":"FLOCK 4Y-4","OBJECT_ID":"2023-001AY","EPOCH":"2024-01-23T02:58:00.760224","MEAN_MOTION":15.23819404,"ECCENTRICITY":0.001139,"INCLINATION":97.45,"RA_OF_ASC_NODE":85.9692,"ARG_OF_PERICENTER":325.2153,"MEAN_ANOMALY":34.8338,"EPHEMERIS_TYPE":0,"CLASSIFICATION_TYPE":"U","NORAD_CAT_ID":55055,"ELEMENT_SET_NO":999,"REV_AT_EPOCH":5851,"BSTAR":0.0006592,"MEAN_MOTION_DOT":0.00015857,"MEAN_MOTION_DDOT":0},{"OBJECT_NAME":"VIGORIDE-5","OBJECT_ID":"2023-001AZ","EPOCH":"2024-01-23T03:40:26.469696","MEAN_MOTION":15.1573827,"ECCENTRICITY":0.0011659,"INCLINATION":97.4493,"RA_OF_ASC_NODE":83.6914,"ARG_OF_PERICENTER":333.5669,"MEAN_ANOMALY":26.4968,"EPHEMERIS_TYPE":0,"CLASSIFICATION_TYPE":"U","NORAD_CAT_ID":55056,"ELEMENT_SET_NO":999,"REV_AT_EPOCH":5836,"BSTAR":0.00057967,"MEAN_MOTION_DOT":0.00011011,"MEAN_MOTION_DDOT":0},{"OBJECT_NAME":"FLOCK 4Y-35","OBJECT_ID":"2023-001BA","EPOCH":"2024-01-23T03:18:46.602432","MEAN_MOTION":15.23697152,"ECCENTRICITY":0.0010429,"INCLINATION":97.4506,"RA_OF_ASC_NODE":86.0171,"ARG_OF_PERICENTER":330.9594,"MEAN_ANOMALY":29.1062,"EPHEMERIS_TYPE":0,"CLASSIFICATION_TYPE":"U","NORAD_CAT_ID":55057,"ELEMENT_SET_NO":999,"REV_AT_EPOCH":5851,"BSTAR":0.00064904,"MEAN_MOTION_DOT":0.0001555,"MEAN_MOTION_DDOT":0},{"OBJECT_NAME":"SKYKRAFT-1B","OBJECT_ID":"2023-001BB","EPOCH":"2024-01-23T03:24:01.706688","MEAN_MOTION":15.20864841,"ECCENTRICITY":0.0010903,"INCLINATION":97.4493,"RA_OF_ASC_NODE":84.728,"ARG_OF_PERICENTER":331.4063,"MEAN_ANOMALY":28.6574,"EPHEMERIS_TYPE":0,"CLASSIFICATION_TYPE":"U","NORAD_CAT_ID":55058,"ELEMENT_SET_NO":999,"REV_AT_EPOCH":5843,"BSTAR":0.00060353,"MEAN_MOTION_DOT":0.00013294,"MEAN_MOTION_DDOT":0},{"OBJECT_NAME":"ION SCV-007","OBJECT_ID":"2023-001BD","EPOCH":"2024-01-23T03:00:24.499584","MEAN_MOTION":14.75252471,"ECCENTRICITY":0.0011662,"INCLINATION":98.0202,"RA_OF_ASC_NODE":87.3796,"ARG_OF_PERICENTER":272.2025,"MEAN_ANOMALY":87.7848,"EPHEMERIS_TYPE":0,"CLASSIFICATION_TYPE":"U","NORAD_CAT_ID":55060,"ELEMENT_SET_NO":999,"REV_AT_EPOCH":5696,"BSTAR":0.00015417,"MEAN_MOTION_DOT":9.93e-6,"MEAN_MOTION_DDOT":0},{"OBJECT_NAME":"SKYKRAFT-1C","OBJECT_ID":"2023-001BE","EPOCH":"2024-01-23T02:58:06.998304","MEAN_MOTION":15.15668312,"ECCENTRICITY":0.0012138,"INCLINATION":97.4499,"RA_OF_ASC_NODE":83.4136,"ARG_OF_PERICENTER":341.268,"MEAN_ANOMALY":18.8104,"EPHEMERIS_TYPE":0,"CLASSIFICATION_TYPE":"U","NORAD_CAT_ID":55061,"ELEMENT_SET_NO":999,"REV_AT_EPOCH":5834,"BSTAR":0.00022993,"MEAN_MOTION_DOT":4.316e-5,"MEAN_MOTION_DDOT":0},{"OBJECT_NAME":"ICEYE-X27","OBJECT_ID":"2023-001BF","EPOCH":"2024-01-23T06:01:49.471392","MEAN_MOTION":15.19394818,"ECCENTRICITY":0.001356,"INCLINATION":97.4517,"RA_OF_ASC_NODE":85.4425,"ARG_OF_PERICENTER":1.4036,"MEAN_ANOMALY":358.7234,"EPHEMERIS_TYPE":0,"CLASSIFICATION_TYPE":"U","NORAD_CAT_ID":55062,"ELEMENT_SET_NO":999,"REV_AT_EPOCH":5848,"BSTAR":0.0031143,"MEAN_MOTION_DOT":0.00066541,"MEAN_MOTION_DDOT":0},{"OBJECT_NAME":"FLOCK 4Y-20","OBJECT_ID":"2023-001BG","EPOCH":"2024-01-23T03:47:59.046720","MEAN_MOTION":15.23320702,"ECCENTRICITY":0.0012413,"INCLINATION":97.4531,"RA_OF_ASC_NODE":86.0808,"ARG_OF_PERICENTER":330.7296,"MEAN_ANOMALY":29.3244,"EPHEMERIS_TYPE":0,"CLASSIFICATION_TYPE":"U","NORAD_CAT_ID":55063,"ELEMENT_SET_NO":999,"REV_AT_EPOCH":5851,"BSTAR":0.00059252,"MEAN_MOTION_DOT":0.00014037,"MEAN_MOTION_DDOT":0},{"OBJECT_NAME":"NUSAT-32 (ALBANIA-1)","OBJECT_ID":"2023-001BH","EPOCH":"2024-01-23T07:47:02.040288","MEAN_MOTION":15.26950115,"ECCENTRICITY":0.0011615,"INCLINATION":97.3116,"RA_OF_ASC_NODE":83.6283,"ARG_OF_PERICENTER":319.7976,"MEAN_ANOMALY":40.2403,"EPHEMERIS_TYPE":0,"CLASSIFICATION_TYPE":"U","NORAD_CAT_ID":55064,"ELEMENT_SET_NO":999,"REV_AT_EPOCH":5872,"BSTAR":0.00069791,"MEAN_MOTION_DOT":0.00018456,"MEAN_MOTION_DDOT":0},{"OBJECT_NAME":"FLOCK 4Y-12","OBJECT_ID":"2023-001BJ","EPOCH":"2024-01-23T03:38:58.060032","MEAN_MOTION":15.23489486,"ECCENTRICITY":0.0011841,"INCLINATION":97.4533,"RA_OF_ASC_NODE":86.1251,"ARG_OF_PERICENTER":329.813,"MEAN_ANOMALY":30.2424,"EPHEMERIS_TYPE":0,"CLASSIFICATION_TYPE":"U","NORAD_CAT_ID":55065,"ELEMENT_SET_NO":999,"REV_AT_EPOCH":5851,"BSTAR":0.00061572,"MEAN_MOTION_DOT":0.00014662,"MEAN_MOTION_DDOT":0}]
